IRIDIUM 106             
1 41917U 17003A   24030.68673797  .00000109  00000+0  31800-4 0  9990
2 41917  86.3942  91.5065 0001933 102.7845 257.3567 14.34218352368729
IRIDIUM 103             
1 41918U 17003B   24030.67405325  .00000357  00000+0  12055-3 0  9995
2 41918  86.3941  91.4138 0002086  84.1472 275.9961 14.34218204368740
IRIDIUM 109             
1 41919U 17003C   24030.68039662  .00000217  00000+0  70499-4 0  9996
2 41919  86.3943  91.4564 0002419  91.7016 268.4457 14.34218646368718
IRIDIUM 102             
1 41920U 17003D   24030.71845161  .00000097  00000+0  27669-4 0  9998
2 41920  86.3940  91.3822 0002207  89.7393 270.4056 14.34218501368801
IRIDIUM 105             
1 41921U 17003E   24030.61940880  .00000412  00000+0  13993-3 0  9997
2 41921  86.3933  59.8213 0002181  90.6510 269.4936 14.34228549370643
IRIDIUM 104             
1 41922U 17003F   24030.66136836  .00000039  00000+0  68067-5 0  9990
2 41922  86.3942  91.4357 0002241  91.2747 268.8706 14.34218042368788
IRIDIUM 114             
1 41923U 17003G   24031.15608907  .00000123  00000+0  36748-4 0  9993
2 41923  86.3943  91.2152 0002010 100.0883 260.0540 14.34217170368854
IRIDIUM 108             
1 41924U 17003H   24030.90530343  .00000013  00000+0 -25277-5 0  9999
2 41924  86.3926  59.6355 0002043  98.0687 262.0741 14.34219633370655
